{
  "norad_id": 68829,
  "name": "COSMOS 2618",
  "history": [
    {
      "epoch": "2026-04-24T17:42:37.713600Z",
      "apogee_km": 338.0080444588739,
      "perigee_km": 321.1035853344847,
      "latitude_deg": 1.8267377624997532e-05,
      "longitude_deg": -84.14115335455699,
      "height_km": 336.8297441742566,
      "semi_major_axis_km": 6707.692814896679,
      "eccentricity": 0.00126008,
      "inclination_deg": 96.6466,
      "raan_deg": 34.2825,
      "arg_perigee_deg": 241.1997,
      "mean_anomaly_deg": 118.8008,
      "mean_motion_rev_day": 15.8031264
    }
  ]
}