{"fetched_at":"2026-04-27T10:18:45Z","count":15360,"tles":[{"name":"2026-090D","line1":"1 68829U 26090D   26114.73793650  .00031010  00000+0  16485-3 0  9995","line2":"2 68829  96.6466  34.2825 0012600 241.1997 118.8008 15.80312640   228","category":"Other"}]}